SL-16 R/B               
1 19120U 88039B   16126.19306808 -.00000009  00000-0  18407-4 0  9996
2 19120  71.0121 106.9748 0019627  94.3918 265.9450 14.19146841448502
COSMOS 1953             
1 19210U 88050A   16126.33712689  .00000887  00000-0  60840-4 0  9994
2 19210  82.5189  68.6502 0012903 205.1304 154.9297 15.04738332516493
SL-8 R/B                
1 19257U 88053B   16125.51720564  .00000075  00000-0  34056-4 0  9997
2 19257  74.0495 247.8030 0021317 241.5014 189.2347 14.37308192460057
COSMOS 1975             
1 19573U 88093A   16125.75184958  .00000605  00000-0  42103-4 0  9990
2 19573  82.5228  20.4909 0013019 246.6471 113.3386 15.03656059498424
SL-14 R/B               
1 19574U 88093B   16125.65307672  .00000159  00000-0  16419-4 0  9995
2 19574  82.5317 167.0034 0022360  27.3464  91.0733 14.83147345488894
SL-16 R/B               
1 19650U 88102B   16126.39982305  .00000255  00000-0  15431-3 0  9994
2 19650  70.9978 152.5466 0012143  82.8646 277.3858 14.15738059418272
INTERCOSMOS 24          
1 20261U 89080A   16126.03070980  .00000115  00000-0  33131-4 0  9991
2 20261  82.5936 274.3214 1204087 317.9775  33.4755 12.55757165214738
SL-14 R/B               
1 20262U 89080C   16125.99879743  .00000195  00000-0  49104-4 0  9995
2 20262  82.5915 317.5058 1238384 107.1218 266.9026 12.48807046210770
DELTA 1 R/B             
1 20323U 89089B   16125.49363097  .00000092  00000-0  33353-4 0  9992
2 20323  97.0648 131.1201 0070331 286.9516  72.3980 14.48114874395576
DELTA 2 R/B(1)          
1 20453U 90008B   16126.17192520  .00004429  00000-0  25990-3 0  9991
2 20453  35.6243 104.7957 0294715  18.3025 342.8041 14.81609351387625
COSMOS 2058             
1 20465U 90010A   16125.84373364  .00000856  00000-0  71733-4 0  9994
2 20465  82.4883 280.3551 0014681 225.6791 134.3229 14.97158706424235
SL-14 R/B               
1 20466U 90010B   16126.22429685  .00000138  00000-0  14731-4 0  9994
2 20466  82.5060  34.3006 0019241 236.1706 123.7677 14.81214559417105
SL-14 R/B               
1 20511U 90018B   16125.65662394  .00000140  00000-0  15437-4 0  9992
2 20511  82.5221 334.5389 0017932  17.7471  42.8604 14.79875466411642
HST                     
1 20580U 90037B   16126.43120896  .00000963  00000-0  49227-4 0  9999
2 20580  28.4692 181.0627 0002999 107.3344   2.2221 15.08334959228642
SL-16 R/B               
1 20625U 90046B   16125.86596454  .00000220  00000-0  13930-3 0  9999
2 20625  70.9983 286.1036 0013969 359.6665 102.8413 14.14594798340094
COSMOS 2084             
1 20663U 90055A   16126.16555362  .00000515  00000-0  63328-4 0  9992
2 20663  62.7917 149.5133 0120289  49.2242 311.9214 14.91156401398959
SL-6 R/B(2)             
1 20666U 90055D   16126.19261141  .00000754  00000-0  81573-4 0  9994
2 20666  62.7845  69.3838 0131334  69.0175 292.4912 14.91536797400313
SL-8 R/B                
1 20775U 90078B   16125.80424548  .00003991  00000-0  20078-3 0  9997
2 20775  82.9334  22.3161 0599666 157.9105 204.9147 14.28148988290423
SL-8 R/B                
1 21088U 91006B   16125.56045190 -.00000019  00000-0 -34647-4 0  9990
2 21088  82.9401 323.9958 0023151  27.3132  24.3848 13.77031794269361
OKEAN-3                 
1 21397U 91039A   16126.19124570  .00000512  00000-0  47602-4 0  9990
2 21397  82.5216 165.8791 0018767 156.8229 203.3842 14.92182691348939
COSMOS 2151             
1 21422U 91042A   16126.16387956  .00000473  00000-0  44597-4 0  9995
2 21422  82.4994 274.6533 0013543 211.4924 148.5486 14.91609721347671
SL-14 R/B               
1 21423U 91042B   16125.54175561  .00000148  00000-0  16610-4 0  9998
2 21423  82.4936 343.2777 0018523 144.9500 215.2936 14.79628978342155
ERS-1                   
1 21574U 91050A   16125.48347349  .00000126  00000-0  55845-4 0  9991
2 21574  98.4110  74.3830 0034324  95.8600 264.6501 14.37483921298873
ARIANE 40 R/B           
1 21610U 91050F   16125.76437773  .00000086  00000-0  41193-4 0  9990
2 21610  98.6601 172.4732 0004416  86.7607  23.5171 14.40719335301300
INTERCOSMOS 25          
1 21819U 91086A   16126.40296658 -.00000228  00000-0 -45510-4 0  9994
2 21819  82.5508 308.1736 1526305 234.3777 110.5596 12.04165484 63184
SL-14 R/B               
1 21820U 91086B   16126.18444803  .00000407  00000-0  74958-4 0  9993
2 21820  82.5636 359.1388 1578304  47.1751 325.1553 11.93149835 58129
SL-8 R/B                
1 21876U 92008B   16125.84174325  .00000057  00000-0  43226-4 0  9995
2 21876  82.9285  60.6899 0036216  93.8192 319.0006 13.75584982215243
SL-8 R/B                
1 21938U 92020B   16124.89318642  .00000163  00000-0  15443-3 0  9991
2 21938  82.9274 304.3225 0027880 253.3519 215.6185 13.75242983207033
SL-16 R/B               
1 22220U 92076B   16125.57088948 -.00000201  00000-0 -76964-4 0  9997
2 22220  71.0001 199.3487 0012971 185.7736 272.6870 14.16394946212911
SL-16 R/B               
1 22285U 92093B   16126.05724860 -.00000149  00000-0 -52188-4 0  9994
2 22285  71.0228 348.4279 0003715 356.0450   4.0643 14.14996841204805
COSMOS 2228             
1 22286U 92094A   16126.21539166  .00000510  00000-0  53391-4 0  9994
2 22286  82.5239  38.6788 0021726  39.0724 321.2057 14.87429000261840
SL-16 R/B               
1 22566U 93016B   16126.43469630 -.00000210  00000-0 -84098-4 0  9999
2 22566  71.0085 202.8056 0009271  20.9406 339.2094 14.14928631193593
COSMOS 2242             
1 22626U 93024A   16125.89845857  .00000535  00000-0  56174-4 0  9995
2 22626  82.5234  66.6566 0020248  39.6533 320.6160 14.87433959245455
SL-16 R/B               
1 22803U 93059B   16125.14151715  .00000141  00000-0  94581-4 0  9998
2 22803  70.9918  31.3711 0019316 286.3298  73.5702 14.16740475170343
ARIANE 40 R/B           
1 22830U 93061H   16126.43183275  .00000010  00000-0  21421-4 0  9998
2 22830  98.8859 126.3835 0011705  43.0282 118.0767 14.31406097179917
COSMOS 2278             
1 23087U 94023A   16126.15303918 -.00000293  00000-0 -12987-3 0  9990
2 23087  71.0509 131.7641 0006763 128.4989 231.6740 14.13712043136829
SL-16 R/B               
1 23088U 94023B   16126.27639055  .00000278  00000-0  16930-3 0  9991
2 23088  71.0008  58.1932 0003794 327.4561  32.6327 14.14639946137852
SL-16 R/B               
1 23343U 94074B   16126.08532590  .00000051  00000-0  14996-4 0  9996
2 23343  98.1968 151.9401 0005783 307.8322 113.4253 14.76652090156604
SL-16 R/B               
1 23405U 94077B   16126.08326034  .00000120  00000-0  86402-4 0  9990
2 23405  70.9846 353.4275 0004420 243.1004 116.9667 14.15183888107778
ERS-2                   
1 23560U 95021A   16125.44865335  .00004053  00000-0  19874-3 0  9990
2 23560  98.5122  58.7013 0002416 242.2290 117.8697 15.18821910113306
ARIANE 40+ R/B          
1 23561U 95021B   16125.56729913  .00000118  00000-0  54693-4 0  9992
2 23561  98.7681 111.9094 0007680  36.0790  71.3800 14.37733291102539
SL-16 R/B               
1 23705U 95058B   16125.52123691  .00000027  00000-0  38350-4 0  9990
2 23705  71.0204 166.4250 0013587 209.3948 150.6412 14.15082361 59370
SL-16 R/B               
1 24298U 96051B   16125.52315472  .00000037  00000-0  46313-4 0  9991
2 24298  70.8353 203.5014 0012551  71.6087 288.6397 14.12396258 14112
ORBVIEW 2 (SEASTAR)     
1 24883U 97037A   16126.23846873  .00000072  00000-0  42029-4 0  9998
2 24883  98.5170 234.8638 0001680 205.3666 154.7437 14.33310850993464
SL-16 R/B               
1 25400U 98043G   16125.88455639  .00000006  00000-0  20262-4 0  9990
2 25400  98.4343  82.4620 0010857  54.9646 305.2552 14.25379500926905
SL-16 R/B               
1 25407U 98045B   16126.40193507  .00000207  00000-0  12955-3 0  9993
2 25407  71.0106 178.3662 0005822 116.0485 244.1238 14.15743416918468
ISS (ZARYA)             
1 25544U 98067A   16126.58570733  .00005776  00000-0  86075-4 0  9999
2 25544  51.6412 270.5537 0001685  85.9343 274.2357 15.54448729998355
SL-8 R/B                
1 25723U 99022C   16125.52587285  .00007899  00000-0  15613-3 0  9990
2 25723  48.4177 176.4047 0012246 236.5430 229.2706 15.47909126943063
CZ-4B R/B               
1 25732U 99025C   16125.53058867  .00000020  00000-0  32052-4 0  9999
2 25732  98.9709 116.7732 0037502 172.9689 295.7355 14.17606791878730
OKEAN-O                 
1 25860U 99039A   16125.74633148  .00000245  00000-0  42878-4 0  9996
2 25860  98.1402 100.2543 0001588  69.1603 290.9776 14.76344037903561
SL-16 R/B               
1 25861U 99039B   16125.90557508  .00000100  00000-0  21067-4 0  9997
2 25861  98.0497  89.9642 0014768 321.1594  97.1868 14.78307254905453
TERRA                   
1 25994U 99068A   16126.23949061  .00000193  00000-0  52889-4 0  9990
2 25994  98.2105 201.1354 0001054  86.6710 273.4598 14.57093130871265
SL-14 R/B               
1 26874U 01032B   16125.87321893  .00024351  00000-0  13651-3 0  9993
2 26874  82.4594 329.2535 0007311  18.1702 341.9824 15.79095782828801
ENVISAT                 
1 27386U 02009A   16126.11861331 -.00000005  00000-0  12154-4 0  9990
2 27386  98.2873 181.0709 0001328  78.7300 281.4042 14.37864223742431
IDEFIX & ARIANE 42P R/B 
1 27422U 02021B   16126.08814552  .00000030  00000-0  27589-4 0  9999
2 27422  98.2322 142.9872 0012521  12.9989 347.1514 14.29240000728382
AQUA                    
1 27424U 02022A   16126.21649012  .00000218  00000-0  58485-4 0  9991
2 27424  98.1968  67.4323 0000951  49.5812  87.2406 14.57136382744867
CZ-4B R/B               
1 27432U 02024C   16126.46524023  .00000002  00000-0  23997-4 0  9994
2 27432  98.9327  93.0196 0051523 106.4878   1.3964 14.14013747721179
MIDORI II (ADEOS-II)    
1 27597U 02056A   16125.54993047  .00000098  00000-0  57070-4 0  9999
2 27597  98.3189 107.7610 0002295  89.5262 270.6183 14.27206553697130
H-2A R/B                
1 27601U 02056E   16125.79500061  .00000058  00000-0  36509-4 0  9992
2 27601  98.4202 200.6011 0073279  66.0860  40.8739 14.31708687699377
